IRIDIUM 155             
1 43573U 18061E   25084.84835966  .00000859  00000+0  29966-3 0  9992
2 43573  86.3940 243.9795 0001932  85.5190 274.6226 14.34221657349095
IRIDIUM 154             
1 43574U 18061F   25084.89910218  .00001353  00000+0  47604-3 0  9991
2 43574  86.3944 244.0697 0002080  92.8179 267.3255 14.34216333349159
IRIDIUM 163             
1 43575U 18061G   25085.15914953  .00000756  00000+0  26272-3 0  9996
2 43575  86.3941 243.8903 0002293  91.4020 268.7439 14.34216118349161
IRIDIUM 156             
1 43576U 18061H   25084.71516470  .00000764  00000+0  26569-3 0  9998
2 43576  86.3940 244.0829 0001771  85.6149 274.5249 14.34218951349091
IRIDIUM 164             
1 43577U 18061J   25084.48682757  .00000896  00000+0  31294-3 0  9992
2 43577  86.3942 244.2115 0002045  99.3352 260.8075 14.34223127349105
IRIDIUM 159             
1 43578U 18061K   25084.87372952  .00000844  00000+0  29418-3 0  9997
2 43578  86.3942 243.9958 0002196  96.0772 264.0674 14.34215931349121
IRIDIUM 180             
1 43922U 19002A   25085.22207346  .00000011  00000+0 -31590-5 0  9993
2 43922  86.4042 180.8100 0002230  94.1119 266.0332 14.34215244324827
IRIDIUM 176             
1 43923U 19002B   25084.64011213  .00003419  00000+0  53806-3 0  9991
2 43923  86.6171 181.0530 0002919  88.3786 271.7766 14.72258632333253
IRIDIUM 168             
1 43924U 19002C   25084.65758063  .00000013  00000+0 -23587-5 0  9997
2 43924  86.4047 181.1098 0002207  97.3465 262.7982 14.34215321324681
IRIDIUM 173             
1 43925U 19002D   25084.71465974  .00000766  00000+0  26640-3 0  9996
2 43925  86.4047 180.9936 0002177  90.9996 269.1449 14.34219891324678
IRIDIUM 169             
1 43926U 19002E   25085.38269618  .00001092  00000+0  35036-3 0  9990
2 43926  86.4271 212.2808 0002446  55.7943 304.3487 14.38634031325840
IRIDIUM 172             
1 43927U 19002F   25085.19670253  .00000859  00000+0  29958-3 0  9997
2 43927  86.4045 180.7990 0002502  96.6708 263.4773 14.34226765324756
IRIDIUM 175             
1 43928U 19002G   25085.17862810  .00002887  00000+0  45407-3 0  9998
2 43928  86.1515 138.0972 0001726  82.3595 277.7818 14.72229032333328
IRIDIUM 171             
1 43929U 19002H   25085.31720871  .00000214  00000+0  69228-4 0  9995
2 43929  86.4054 181.0053 0001873 105.3502 254.7901 14.34212855324764
IRIDIUM 170             
1 43930U 19002J   25084.57832275  .00003476  00000+0  54703-3 0  9990
2 43930  86.6170 181.0839 0001979  95.0658 265.0785 14.72262288333259
IRIDIUM 167             
1 43931U 19002K   25085.24109082  .00000570  00000+0  19641-3 0  9993
2 43931  86.4049 180.7993 0001730  95.1472 264.9921 14.34221182324751
IRIDIUM 181             
1 56726U 23068S   25085.51585374  .00000159  00000+0  41243-4 0  9995
2 56726  86.4485 243.7482 0001684 107.7631 252.3754 14.43282821 97860
IRIDIUM 177             
1 56727U 23068T   25084.71834543  .00004718  00000+0  61747-3 0  9997
2 56727  86.2039 181.7175 0001703 107.3792 252.7615 14.80218640100022
IRIDIUM 174             
1 56728U 23068U   25085.38887991  .00004947  00000+0  64762-3 0  9991
2 56728  86.2036 181.5241 0003154 108.7945 251.3619 14.80210488100121
IRIDIUM 178             
1 56729U 23068V   25085.45103475  .00004590  00000+0  60084-3 0  9995
2 56729  86.6584 212.3318 0002094 104.1353 256.0101 14.80210503100134
IRIDIUM 179             
1 56730U 23068W   25085.51323044  .00004123  00000+0  53984-3 0  9993
2 56730  86.6809 219.9320 0002330  82.6642 277.4844 14.80177349100148
